[{"OBJECT_NAME":"STARLINK-34663","OBJECT_ID":"2025-150T","EPOCH":"2026-03-09T14:35:13.289280","MEAN_MOTION":14.98334733,"ECCENTRICITY":0.0003609,"INCLINATION":70.0019,"RA_OF_ASC_NODE":134.7012,"ARG_OF_PERICENTER":271.2876,"MEAN_ANOMALY":88.7869,"EPHEMERIS_TYPE":0,"CLASSIFICATION_TYPE":"U","NORAD_CAT_ID":64807,"ELEMENT_SET_NO":999,"REV_AT_EPOCH":3650,"BSTAR":0.0001693,"MEAN_MOTION_DOT":1.928e-5,"MEAN_MOTION_DDOT":0},{"OBJECT_NAME":"DELTA 1 DEB","OBJECT_ID":"1978-026BU","EPOCH":"2026-03-09T11:22:20.910432","MEAN_MOTION":14.96481719,"ECCENTRICITY":0.00669454,"INCLINATION":98.7967,"RA_OF_ASC_NODE":254.5698,"ARG_OF_PERICENTER":166.8222,"MEAN_ANOMALY":193.4765,"EPHEMERIS_TYPE":0,"CLASSIFICATION_TYPE":"U","NORAD_CAT_ID":12227,"ELEMENT_SET_NO":999,"REV_AT_EPOCH":38498,"BSTAR":0.0006297912,"MEAN_MOTION_DOT":7.412e-5,"MEAN_MOTION_DDOT":0}]
